[{"OBJECT_NAME":"AUTCUBE 2","OBJECT_ID":"2018-084K","EPOCH":"2026-03-09T11:33:24.036480","MEAN_MOTION":15.09319394,"ECCENTRICITY":0.00096854,"INCLINATION":98.0799,"RA_OF_ASC_NODE":269.364,"ARG_OF_PERICENTER":28.2406,"MEAN_ANOMALY":331.9345,"EPHEMERIS_TYPE":0,"CLASSIFICATION_TYPE":"U","NORAD_CAT_ID":43681,"ELEMENT_SET_NO":999,"REV_AT_EPOCH":40188,"BSTAR":0.00033524122,"MEAN_MOTION_DOT":5.282e-5,"MEAN_MOTION_DDOT":0},{"OBJECT_NAME":"STARLINK-4211","OBJECT_ID":"2022-062AV","EPOCH":"2026-03-09T05:25:01.571232","MEAN_MOTION":15.08830167,"ECCENTRICITY":0.00014161,"INCLINATION":53.2203,"RA_OF_ASC_NODE":16.2045,"ARG_OF_PERICENTER":96.2205,"MEAN_ANOMALY":263.8949,"EPHEMERIS_TYPE":0,"CLASSIFICATION_TYPE":"U","NORAD_CAT_ID":52873,"ELEMENT_SET_NO":999,"REV_AT_EPOCH":20599,"BSTAR":3.3241054e-5,"MEAN_MOTION_DOT":2.41e-6,"MEAN_MOTION_DDOT":0}]
